{"type": "FeatureCollection", "features": [ {"type": "Feature", "properties": {"norad_id": 43683, "name": "BEIDOU-3 G1 (C59)", "group": "gnss", "lat": 2.532691620560621, "lon": -179.26921813301507, "alt_km": 35778.458255488054, "timestamp": "2025-12-08T21:31:04.911507+00:00", "meta": {"OBJECT_NAME": "BEIDOU-3 G1 (C59)", "OBJECT_ID": "2018-085A", "EPOCH": "2025-12-08T14:16:10.918848", "MEAN_MOTION": 1.00272096, "ECCENTRICITY": 0.00017838, "INCLINATION": 2.5971, "RA_OF_ASC_NODE": 103.0649, "ARG_OF_PERICENTER": 63.1006, "MEAN_ANOMALY": 265.5494, "EPHEMERIS_TYPE": 0, "CLASSIFICATION_TYPE": "U", "NORAD_CAT_ID": 43683, "ELEMENT_SET_NO": 999, "REV_AT_EPOCH": 2614, "BSTAR": 0, "MEAN_MOTION_DOT": -2.75e-06, "MEAN_MOTION_DDOT": 0}, "tle": {"line1": "1 43683U 18085A   25342.59457082 -.00000275  00000+0  00000+0 0  9995", "line2": "2 43683   2.5971 103.0649 0001783  63.1006 265.5494  1.00272096 26143"}}, "geometry": {"type": "Point", "coordinates": [-179.26921813301507, 2.532691620560621]}}, {"type": "Feature", "properties": {"norad_id": 43687, "name": "COSMOS 2529 (757)", "group": "gnss", "lat": 0.16138022867976315, "lon": 18.94457189545011, "alt_km": 19125.46914996682, "timestamp": "2025-12-08T21:31:04.911521+00:00", "meta": {"OBJECT_NAME": "COSMOS 2529 (757)", "OBJECT_ID": "2018-086A", "EPOCH": "2025-12-08T04:37:38.472960", "MEAN_MOTION": 2.13101938, "ECCENTRICITY": 0.0007175, "INCLINATION": 64.2918, "RA_OF_ASC_NODE": 199.0421, "ARG_OF_PERICENTER": 254.1873, "MEAN_ANOMALY": 105.8121, "EPHEMERIS_TYPE": 0, "CLASSIFICATION_TYPE": "U", "NORAD_CAT_ID": 43687, "ELEMENT_SET_NO": 999, "REV_AT_EPOCH": 5521, "BSTAR": 0, "MEAN_MOTION_DOT": 5e-07, "MEAN_MOTION_DDOT": 0}, "tle": {"line1": "1 43687U 18086A   25342.19280640  .00000050  00000+0  00000+0 0  9990", "line2": "2 43687  64.2918 199.0421 0007175 254.1873 105.8121  2.13101938 55215"}}, "geometry": {"type": "Point", "coordinates": [18.94457189545011, 0.16138022867976315]}}, {"type": "Feature", "properties": {"norad_id": 43706, "name": "BEIDOU-3 M17 (C36)", "group": "gnss", "lat": 32.898462651137415, "lon": -19.10978614999698, "alt_km": 21541.46905506933, "timestamp": "2025-12-08T21:31:04.911532+00:00", "meta": {"OBJECT_NAME": "BEIDOU-3 M17 (C36)", "OBJECT_ID": "2018-093A", "EPOCH": "2025-12-07T14:48:21.849120", "MEAN_MOTION": 1.86228285, "ECCENTRICITY": 0.00062807, "INCLINATION": 54.1726, "RA_OF_ASC_NODE": 188.7957, "ARG_OF_PERICENTER": 306.8876, "MEAN_ANOMALY": 53.1241, "EPHEMERIS_TYPE": 0, "CLASSIFICATION_TYPE": "U", "NORAD_CAT_ID": 43706, "ELEMENT_SET_NO": 999, "REV_AT_EPOCH": 4797, "BSTAR": 0, "MEAN_MOTION_DOT": 5.7e-07, "MEAN_MOTION_DDOT": 0}, "tle": {"line1": "1 43706U 18093A   25341.61691955  .00000057  00000+0  00000+0 0  9998", "line2": "2 43706  54.1726 188.7957 0006280 306.8876  53.1241  1.86228285 47971"}}, "geometry": {"type": "Point", "coordinates": [-19.10978614999698, 32.898462651137415]}}, {"type": "Feature", "properties": {"norad_id": 43707, "name": "BEIDOU-3 M18 (C37)", "group": "gnss", "lat": -38.90338175361922, "lon": 44.42213995094873, "alt_km": 21542.37270267956, "timestamp": "2025-12-08T21:31:04.911544+00:00", "meta": {"OBJECT_NAME": "BEIDOU-3 M18 (C37)", "OBJECT_ID": "2018-093B", "EPOCH": "2025-12-08T00:22:06.139776", "MEAN_MOTION": 1.86226539, "ECCENTRICITY": 0.00063651, "INCLINATION": 54.1733, "RA_OF_ASC_NODE": 188.774, "ARG_OF_PERICENTER": 352.0648, "MEAN_ANOMALY": 7.9918, "EPHEMERIS_TYPE": 0, "CLASSIFICATION_TYPE": "U", "NORAD_CAT_ID": 43707, "ELEMENT_SET_NO": 999, "REV_AT_EPOCH": 4797, "BSTAR": 0, "MEAN_MOTION_DOT": 5.3e-07, "MEAN_MOTION_DDOT": 0}, "tle": {"line1": "1 43707U 18093B   25342.01534884  .00000053  00000+0  00000+0 0  9997", "line2": "2 43707  54.1733 188.7740 0006365 352.0648   7.9918  1.86226539 47972"}}, "geometry": {"type": "Point", "coordinates": [44.42213995094873, -38.90338175361922]}}, {"type": "Feature", "properties": {"norad_id": 43873, "name": "GPS BIII-1  (PRN 04)", "group": "gnss", "lat": -50.364623962905306, "lon": -24.482625573873765, "alt_km": 20130.673543379315, "timestamp": "2025-12-08T21:31:04.911555+00:00", "meta": {"OBJECT_NAME": "GPS BIII-1  (PRN 04)", "OBJECT_ID": "2018-109A", "EPOCH": "2025-12-08T13:41:32.072640", "MEAN_MOTION": 2.00553358, "ECCENTRICITY": 0.00372104, "INCLINATION": 55.5654, "RA_OF_ASC_NODE": 99.7112, "ARG_OF_PERICENTER": 194.8122, "MEAN_ANOMALY": 178.3596, "EPHEMERIS_TYPE": 0, "CLASSIFICATION_TYPE": "U", "NORAD_CAT_ID": 43873, "ELEMENT_SET_NO": 999, "REV_AT_EPOCH": 5125, "BSTAR": 0, "MEAN_MOTION_DOT": 6e-08, "MEAN_MOTION_DDOT": 0}, "tle": {"line1": "1 43873U 18109A   25342.57051010  .00000006  00000+0  00000+0 0  9993", "line2": "2 43873  55.5654  99.7112 0037210 194.8122 178.3596  2.00553358 51259"}}, "geometry": {"type": "Point", "coordinates": [-24.482625573873765, -50.364623962905306]}}, {"type": "Feature", "properties": {"norad_id": 44204, "name": "BEIDOU-3 IGSO-1 (C38)", "group": "gnss", "lat": 51.00175301551258, "lon": 170.3205990544966, "alt_km": 35821.48962512838, "timestamp": "2025-12-08T21:31:04.911569+00:00", "meta": {"OBJECT_NAME": "BEIDOU-3 IGSO-1 (C38)", "OBJECT_ID": "2019-023A", "EPOCH": "2025-11-19T14:15:02.708640", "MEAN_MOTION": 1.00252177, "ECCENTRICITY": 0.0026966, "INCLINATION": 58.4003, "RA_OF_ASC_NODE": 39.8168, "ARG_OF_PERICENTER": 221.2202, "MEAN_ANOMALY": 126.9723, "EPHEMERIS_TYPE": 0, "CLASSIFICATION_TYPE": "U", "NORAD_CAT_ID": 44204, "ELEMENT_SET_NO": 999, "REV_AT_EPOCH": 510, "BSTAR": 0, "MEAN_MOTION_DOT": -2.26e-06, "MEAN_MOTION_DDOT": 0}, "tle": {"line1": "1 44204U 19023A   25323.59378135 -.00000226  00000+0  00000+0 0  9994", "line2": "2 44204  58.4003  39.8168 0026966 221.2202 126.9723  1.00252177  5102"}}, "geometry": {"type": "Point", "coordinates": [170.3205990544966, 51.00175301551258]}}, {"type": "Feature", "properties": {"norad_id": 44231, "name": "BEIDOU-2 G8 (C01)", "group": "gnss", "lat": 1.5407854124169023, "lon": -174.84378113450018, "alt_km": 35816.38579719035, "timestamp": "2025-12-08T21:31:04.911584+00:00", "meta": {"OBJECT_NAME": "BEIDOU-2 G8 (C01)", "OBJECT_ID": "2019-027A", "EPOCH": "2025-12-08T14:17:33.288288", "MEAN_MOTION": 1.00268953, "ECCENTRICITY": 0.00086273, "INCLINATION": 1.6514, "RA_OF_ASC_NODE": 74.7245, "ARG_OF_PERICENTER": 255.5781, "MEAN_ANOMALY": 106.2285, "EPHEMERIS_TYPE": 0, "CLASSIFICATION_TYPE": "U", "NORAD_CAT_ID": 44231, "ELEMENT_SET_NO": 999, "REV_AT_EPOCH": 2417, "BSTAR": 0, "MEAN_MOTION_DOT": -2.46e-06, "MEAN_MOTION_DDOT": 0}, "tle": {"line1": "1 44231U 19027A   25342.59552417 -.00000246  00000+0  00000+0 0  9998", "line2": "2 44231   1.6514  74.7245 0008627 255.5781 106.2285  1.00268953 24170"}}, "geometry": {"type": "Point", "coordinates": [-174.84378113450018, 1.5407854124169023]}}, {"type": "Feature", "properties": {"norad_id": 44299, "name": "COSMOS 2534 (758)", "group": "gnss", "lat": -40.16386227996361, "lon": 175.11760583535482, "alt_km": 19115.288534951866, "timestamp": "2025-12-08T21:31:04.911595+00:00", "meta": {"OBJECT_NAME": "COSMOS 2534 (758)", "OBJECT_ID": "2019-030A", "EPOCH": "2025-12-08T11:39:55.883808", "MEAN_MOTION": 2.13102089, "ECCENTRICITY": 0.00089406, "INCLINATION": 64.3654, "RA_OF_ASC_NODE": 199.0364, "ARG_OF_PERICENTER": 283.6599, "MEAN_ANOMALY": 75.7329, "EPHEMERIS_TYPE": 0, "CLASSIFICATION_TYPE": "U", "NORAD_CAT_ID": 44299, "ELEMENT_SET_NO": 999, "REV_AT_EPOCH": 5085, "BSTAR": 0, "MEAN_MOTION_DOT": 4.7e-07, "MEAN_MOTION_DDOT": 0}, "tle": {"line1": "1 44299U 19030A   25342.48606347  .00000047  00000+0  00000+0 0  9994", "line2": "2 44299  64.3654 199.0364 0008940 283.6599  75.7329  2.13102089 50850"}}, "geometry": {"type": "Point", "coordinates": [175.11760583535482, -40.16386227996361]}}, {"type": "Feature", "properties": {"norad_id": 44337, "name": "BEIDOU-3 IGSO-2 (C39)", "group": "gnss", "lat": -0.1274916783935198, "lon": 160.43513740159295, "alt_km": 35932.341769944, "timestamp": "2025-12-08T21:31:04.911608+00:00", "meta": {"OBJECT_NAME": "BEIDOU-3 IGSO-2 (C39)", "OBJECT_ID": "2019-035A", "EPOCH": "2025-12-08T04:07:53.847264", "MEAN_MOTION": 1.00272471, "ECCENTRICITY": 0.00374795, "INCLINATION": 55.2246, "RA_OF_ASC_NODE": 160.5411, "ARG_OF_PERICENTER": 202.4386, "MEAN_ANOMALY": 255.7158, "EPHEMERIS_TYPE": 0, "CLASSIFICATION_TYPE": "U", "NORAD_CAT_ID": 44337, "ELEMENT_SET_NO": 999, "REV_AT_EPOCH": 2375, "BSTAR": 0, "MEAN_MOTION_DOT": -7.9e-07, "MEAN_MOTION_DDOT": 0}, "tle": {"line1": "1 44337U 19035A   25342.17215101 -.00000079  00000+0  00000+0 0  9998", "line2": "2 44337  55.2246 160.5411 0037479 202.4386 255.7158  1.00272471 23754"}}, "geometry": {"type": "Point", "coordinates": [160.43513740159295, -0.1274916783935198]}}, {"type": "Feature", "properties": {"norad_id": 44506, "name": "GPS BIII-2  (PRN 18)", "group": "gnss", "lat": 28.35169580240699, "lon": 137.1061666607597, "alt_km": 20087.24205901586, "timestamp": "2025-12-08T21:31:04.911624+00:00", "meta": {"OBJECT_NAME": "GPS BIII-2  (PRN 18)", "OBJECT_ID": "2019-056A", "EPOCH": "2025-12-07T10:30:03.799008", "MEAN_MOTION": 2.00565766, "ECCENTRICITY": 0.00577762, "INCLINATION": 55.723, "RA_OF_ASC_NODE": 338.7627, "ARG_OF_PERICENTER": 198.4737, "MEAN_ANOMALY": 333.4267, "EPHEMERIS_TYPE": 0, "CLASSIFICATION_TYPE": "U", "NORAD_CAT_ID": 44506, "ELEMENT_SET_NO": 999, "REV_AT_EPOCH": 4622, "BSTAR": 0, "MEAN_MOTION_DOT": -8.3e-07, "MEAN_MOTION_DDOT": 0}, "tle": {"line1": "1 44506U 19056A   25341.43754397 -.00000083  00000+0  00000+0 0  9997", "line2": "2 44506  55.7230 338.7627 0057776 198.4737 333.4267  2.00565766 46229"}}, "geometry": {"type": "Point", "coordinates": [137.1061666607597, 28.35169580240699]}}]}